SatCatId,ObjectName,LaunchYear,OrbitalPeriod,LaunchMass,StatusCode,Inclination,Status,UcsData,OrbitClassEstimated,LaunchSiteCountry,Owner,UseType,Purpose,LaunchVehicleClass,TLE1,TLE2,MeanMotion,Eccentricity,OrbitClass
45764,STARLINK-1502,2020,95.59,227.0,+,53.05,Active,1,LEO,USA,USA,Commercial,Communications,Falcon,1 45764U 20038AL  24105.16802417 -.00000735  00000+0 -30474-4 0  9998,2 45764  53.0545  94.4448 0001523  85.6321 274.4842 15.06384585212729,15.06384585,0.0001523,LEO
45766,STARLINK-1509,2020,93.7,227.0,P,53.05,Active,1,LEO,USA,USA,Commercial,Communications,Falcon,1 45766U 20038AN  24105.18084557  .00022926  00000+0  63514-3 0  9993,2 45766  53.0465  31.9594 0003013  55.1284 305.0001 15.36887256213608,15.36887256,0.0003013,LEO
45767,STARLINK-1511,2020,94.12,227.0,P,53.05,Active,1,LEO,USA,USA,Commercial,Communications,Falcon,1 45767U 20038AP  24105.19487069  .00016218  00000+0  56088-3 0  9995,2 45767  53.0510  88.4816 0002622  75.6606 284.4684 15.30058385212809,15.30058385,0.0002622,LEO
45769,STARLINK-1459,2020,95.59,227.0,+,53.05,Active,1,LEO,USA,USA,Commercial,Communications,Falcon,1 45769U 20038AR  24104.42804673  .00000266  00000+0  36754-4 0  9991,2 45769  53.0537 117.7953 0001258  75.5453 284.5675 15.06401432211405,15.06401432,0.0001258,LEO
45770,STARLINK-1462,2020,93.8,227.0,P,53.05,Active,1,LEO,USA,USA,Commercial,Communications,Falcon,1 45770U 20038AS  24105.58334491  .00568604  00000+0  14663-1 0  9994,2 45770  53.0505  69.9989 0001287  88.6359 305.7219 15.36349189213282,15.36349189,0.0001287,LEO
45771,STARLINK-1463,2020,95.59,227.0,+,53.06,Active,1,LEO,USA,USA,Commercial,Communications,Falcon,1 45771U 20038AT  24105.15143703  .00000429  00000+0  47692-4 0  9999,2 45771  53.0560  74.5161 0001558  96.0481 264.0686 15.06393723213182,15.06393723,0.0001558,LEO
45772,STARLINK-1470,2020,95.59,227.0,+,53.05,Active,1,LEO,USA,USA,Commercial,Communications,Falcon,1 45772U 20038AU  24105.20672233  .00000660  00000+0  63172-4 0  9999,2 45772  53.0554  74.2690 0001431  97.2179 262.8973 15.06400792213198,15.06400792,0.0001431,LEO
45773,STARLINK-1482,2020,95.59,227.0,+,53.05,Active,1,LEO,USA,USA,Commercial,Communications,Falcon,1 45773U 20038AV  24105.19934006  .00001799  00000+0  13960-3 0  9990,2 45773  53.0549  74.3040 0001561  94.8958 265.2209 15.06410448213047,15.06410448,0.0001561,LEO
45774,STARLINK-1485,2020,95.59,227.0,+,53.05,Active,1,LEO,USA,USA,Commercial,Communications,Falcon,1 45774U 20038AW  24105.16986134  .00000938  00000+0  81851-4 0  9996,2 45774  53.0543  74.4364 0001547  85.7754 274.3412 15.06397154213190,15.06397154,0.0001547,LEO
45775,STARLINK-1488,2020,93.9,227.0,P,53.07,Active,1,LEO,USA,USA,Commercial,Communications,Falcon,1 45775U 20038AX  24105.01328421  .00021755  00000+0  67122-3 0  9994,2 45775  53.0709  25.5291 0001788 285.6450  74.4353 15.33530900213733,15.335309,0.0001788,LEO
45776,STARLINK-1489,2020,95.36,227.0,P,53.05,Active,1,LEO,USA,USA,Commercial,Communications,Falcon,1 45776U 20038AY  24105.29524347  .00025717  00000+0  15729-2 0  9997,2 45776  53.0542  72.9837 0004085  63.9510 296.1900 15.10092051213228,15.10092051,0.0004085,LEO
45777,STARLINK-1490,2020,94.38,227.0,P,53.04,Active,1,LEO,USA,USA,Commercial,Communications,Falcon,1 45777U 20038AZ  24105.14857367  .00047135  00000+0  18197-2 0  9993,2 45777  53.0373  42.6343 0003008  48.1555 311.9699 15.25834458213654,15.25834458,0.0003008,LEO
45778,STARLINK-1491,2020,95.59,227.0,+,53.05,Active,1,LEO,USA,USA,Commercial,Communications,Falcon,1 45778U 20038BA  24105.15879876  .00002651  00000+0  19678-3 0  9994,2 45778  53.0548  74.4907 0001571 107.0381 253.0780 15.06403720213181,15.0640372,0.0001571,LEO
45779,STARLINK-1492,2020,93.98,227.0,P,53.03,Active,1,LEO,USA,USA,Commercial,Communications,Falcon,1 45779U 20038BB  24105.04368442  .00029642  00000+0  94603-3 0  9995,2 45779  53.0257  17.2156 0002643  86.9757 273.1545 15.32272599213980,15.32272599,0.0002643,LEO
45780,STARLINK-1496,2020,95.59,227.0,+,53.05,Active,1,LEO,USA,USA,Commercial,Communications,Falcon,1 45780U 20038BC  24105.16617656 -.00001586  00000+0 -87582-4 0  9992,2 45780  53.0543  74.4536 0001287  98.1153 261.9982 15.06396473212994,15.06396473,0.0001287,LEO
45781,STARLINK-1497,2020,95.59,227.0,+,53.05,Active,1,LEO,USA,USA,Commercial,Communications,Falcon,1 45781U 20038BD  24105.12562062  .00001786  00000+0  13874-3 0  9991,2 45781  53.0549  74.6334 0001533  90.6095 269.5070 15.06408177212992,15.06408177,0.0001533,LEO
45782,STARLINK-1498,2020,93.93,227.0,P,53.05,Active,1,LEO,USA,USA,Commercial,Communications,Falcon,1 45782U 20038BE  24104.91042351  .00019477  00000+0  61169-3 0  9998,2 45782  53.0495  18.0429 0001071 348.7004  11.3973 15.33036418212860,15.33036418,0.0001071,LEO
45783,STARLINK-1505,2020,95.59,227.0,+,53.05,Active,1,LEO,USA,USA,Commercial,Communications,Falcon,1 45783U 20038BF  24105.18828060  .00001699  00000+0  13290-3 0  9997,2 45783  53.0555  74.3504 0001572  90.4473 269.6696 15.06409278213009,15.06409278,0.0001572,LEO
45784,STARLINK-1510,2020,95.59,227.0,+,53.05,Active,1,LEO,USA,USA,Commercial,Communications,Falcon,1 45784U 20038BG  24105.16248984  .00000104  00000+0  25875-4 0  9990,2 45784  53.0538  74.4661 0001277  92.4213 267.6922 15.06408435212993,15.06408435,0.0001277,LEO
45785,STARLINK-1512,2020,95.59,227.0,+,53.06,Active,1,LEO,USA,USA,Commercial,Communications,Falcon,1 45785U 20038BH  24105.21040773  .00000105  00000+0  25921-4 0  9996,2 45785  53.0561  74.2506 0001608 103.1740 256.9429 15.06397770213004,15.0639777,0.0001608,LEO
45786,STARLINK-1513,2020,95.59,227.0,+,53.05,Active,1,LEO,USA,USA,Commercial,Communications,Falcon,1 45786U 20038BJ  24105.12930690  .00001190  00000+0  98772-4 0  9992,2 45786  53.0542  74.6171 0001508  87.5907 272.5255 15.06409062212991,15.06409062,0.0001508,LEO
45787,STARLINK-1517,2020,95.59,227.0,+,53.05,Active,1,LEO,USA,USA,Commercial,Communications,Falcon,1 45787U 20038BK  24105.13668832  .00000058  00000+0  22782-4 0  9990,2 45787  53.0544  74.5832 0001669  95.2196 264.8983 15.06400035212994,15.06400035,0.0001669,LEO
45788,SKYSAT-C14,2020,92.21,100.0,+,52.98,Active,1,LEO,USA,USA,Commercial,Earth Observation,Falcon,1 45788U 20038BL  24104.86020589  .00067133  00000+0  76130-3 0  9993,2 45788  52.9763 344.0172 0008120 180.1727 179.9284 15.61738846218284,15.61738846,0.000812,LEO
45789,SKYSAT-C16,2020,92.45,100.0,+,52.98,Active,1,LEO,USA,USA,Commercial,Earth Observation,Falcon,1 45789U 20038BM  24104.89721610  .00056519  00000+0  74909-3 0  9998,2 45789  52.9764 334.3046 0009514 148.9342 211.2233 15.57696367218416,15.57696367,0.0009514,LEO
45790,SKYSAT-C15,2020,92.53,100.0,+,52.98,Active,1,LEO,USA,USA,Commercial,Earth Observation,Falcon,1 45790U 20038BN  24104.86689931  .00050834  00000+0  71232-3 0  9996,2 45790  52.9775 352.6784 0004538 151.1135 209.0127 15.56283902218153,15.56283902,0.0004538,LEO
45794,GAOFEN-9 03,2020,94.5,1000.0,+,97.45,Active,1,LEO,PRC,China,Government,Earth Observation,Long March,1 45794U 20039A   24105.55439754  .00012868  00000+0  53630-3 0  9991,2 45794  97.4500 226.8124 0012450   2.8027 357.3278 15.23769639212744,15.23769639,0.001245,LEO
45795,ZHEDA PIXING 3A,2020,92.73,12.0,+,97.46,Active,1,LEO,PRC,China,Civil,Technology Development,Long March,1 45795U 20039B   24105.52303203  .00045927  00000+0  73678-3 0  9994,2 45795  97.4601 241.7324 0006936 351.6822   8.4315 15.52907710213681,15.5290771,0.0006936,LEO
45807,BEIDOU-3 G3,2020,1436.01,800.0,+,0.68,Active,1,GSO,PRC,China,Government/Military,Navigation (Global or Regional Positioning),Long March,1 45807U 20040A   24105.10535713 -.00000364  00000+0  00000+0 0  9999,2 45807   0.6810  32.8524 0005955 299.5505  18.7468  1.00277810 14122,1.0027781,0.0005955,GEO
45854,NAVSTAR 79 (USA 304),2020,717.99,2300.0,+,56.07,Active,1,MEO,USA,USA,Commercial/Military,Navigation (Global or Regional Positioning),Falcon,1 45854U 20041A   24104.84846267 -.00000046  00000+0  00000+0 0  9998,2 45854  56.0728  59.9537 0040966 193.7499  57.9527  2.00559476 28105,2.00559476,0.0040966,MEO
45856,GAOFEN DUOMO (GFDM),2020,97.5,-1.0,+,97.87,Active,1,LEO,PRC,China,Government,Earth Observation,Long March,1 45856U 20042A   24105.53592003  .00001656  00000+0  24256-3 0  9994,2 45856  97.8716 178.2810 0012932 127.6356 232.6030 14.76862368203879,14.76862368,0.0012932,LEO
45857,BY70-2,2020,95.08,-1.0,+,97.91,Active,0,LEO,PRC,China,Unknown,Unknown,Unknown,1 45857U 20042B   24105.53726550  .00086697  00000+0  46308-2 0  9990,2 45857  97.9081 195.7165 0004004  99.6983 260.4701 15.14721299204862,15.14721299,0.0004004,LEO
45859,SHIYAN 6 02 (SY-6 02),2020,98.66,-1.0,+,98.2,Active,1,LEO,PRC,China,Government,Space Science,Long March,1 45859U 20043A   24105.47492008  .00000425  00000+0  89356-4 0  9991,2 45859  98.1993 114.3079 0131623 183.9859 176.0305 14.59560819201010,14.59560819,0.0131623,LEO
45863,APSTAR-6D,2020,1436.12,5550.0,+,0.06,Active,1,GSO,PRC,China,Commercial,Communications,Long March,1 45863U 20045A   24104.33488889 -.00000328  00000+0  00000+0 0  9991,2 45863   0.0568  79.6892 0002616 326.9762  49.8941  1.00270078 13899,1.00270078,0.0002616,GEO
45920,KOREASAT 116,2020,1436.1,-1.0,+,0.01,Active,1,GSO,USA,South Korea,Military,Communications,Falcon,1 45920U 20048A   24105.55962229 -.00000372  00000+0  00000+0 0  9997,2 45920   0.0087 207.6708 0000814 174.4270 138.7761  1.00271108 13675,1.00271108,8.14e-05,GEO
45939,ZINYUAN-3,2020,94.66,2630.0,+,97.37,Active,1,LEO,PRC,China,Government,Earth Observation,Long March,1 45939U 20051A   24105.50651518  .00008830  00000+0  39787-3 0  9996,2 45939  97.3667 183.1719 0010839 221.2204 138.8215 15.21228629206682,15.21228629,0.0010839,LEO
45941,TIANQI-10,2020,91.48,9.0,+,97.4,Active,1,LEO,PRC,China,Commercial,Technology Development,Long March,1 45941U 20051C   24105.39112568  .00142467  00000+0  97190-3 0  9990,2 45941  97.4003 211.0395 0003656 135.1590 224.9970 15.74412957208360,15.74412957,0.0003656,LEO
